{
  "type": "FeatureCollection",
  "features": [
    {
      "type": "Feature",
      "properties": {
        "norad_id": 39617,
        "name": "ASTRA 5B (EGNOS/PRN 123)",
        "group": "gnss",
        "lat": -0.067192345247856,
        "lon": -71.87692498093129,
        "alt_km": 35767.84930751296,
        "timestamp": "2025-12-22T11:33:20.682261+00:00",
        "meta_object_name": "ASTRA 5B (EGNOS/PRN 123)",
        "meta_object_id": "2014-011B",
        "meta_epoch": "2025-12-21T21:52:06.796128",
        "meta_mean_motion": 1.0027009,
        "meta_eccentricity": 0.0004469,
        "meta_inclination": 0.0431,
        "meta_ra_of_asc_node": 4.4427,
        "meta_arg_of_pericenter": 273.676,
        "meta_mean_anomaly": 164.1359,
        "meta_ephemeris_type": 0,
        "meta_classification_type": "U",
        "meta_norad_cat_id": 39617,
        "meta_element_set_no": 999,
        "meta_rev_at_epoch": 4289,
        "meta_bstar": 0,
        "meta_mean_motion_dot": 1.59e-06,
        "meta_mean_motion_ddot": 0,
        "tle_line1": "1 39617U 14011B   25355.91118977  .00000159  00000+0  00000+0 0  9999",
        "tle_line2": "2 39617   0.0431   4.4427 0004469 273.6760 164.1359  1.00270090 42892"
      },
      "geometry": {
        "type": "Point",
        "coordinates": [
          -71.87692498093129,
          -0.067192345247856
        ]
      }
    },
    {
      "type": "Feature",
      "properties": {
        "norad_id": 39620,
        "name": "COSMOS 2492 (754)",
        "group": "gnss",
        "lat": 37.15606635392224,
        "lon": -19.777647433222594,
        "alt_km": 19124.429248241275,
        "timestamp": "2025-12-22T11:33:20.682273+00:00",
        "meta_object_name": "COSMOS 2492 (754)",
        "meta_object_id": "2014-012A",
        "meta_epoch": "2025-12-21T22:59:34.433088",
        "meta_mean_motion": 2.13103396,
        "meta_eccentricity": 0.0014243,
        "meta_inclination": 65.4026,
        "meta_ra_of_asc_node": 319.9579,
        "meta_arg_of_pericenter": 313.3292,
        "meta_mean_anomaly": 46.5466,
        "meta_ephemeris_type": 0,
        "meta_classification_type": "U",
        "meta_norad_cat_id": 39620,
        "meta_element_set_no": 999,
        "meta_rev_at_epoch": 9146,
        "meta_bstar": 0,
        "meta_mean_motion_dot": -4.2e-07,
        "meta_mean_motion_ddot": 0,
        "tle_line1": "1 39620U 14012A   25355.95803742 -.00000042  00000+0  00000+0 0  9991",
        "tle_line2": "2 39620  65.4026 319.9579 0014243 313.3292  46.5466  2.13103396 91464"
      },
      "geometry": {
        "type": "Point",
        "coordinates": [
          -19.777647433222594,
          37.15606635392224
        ]
      }
    },
    {
      "type": "Feature",
      "properties": {
        "norad_id": 39635,
        "name": "IRNSS-1B",
        "group": "gnss",
        "lat": 28.291217825533142,
        "lon": -42.46536775679815,
        "alt_km": 35795.28623995023,
        "timestamp": "2025-12-22T11:33:20.682284+00:00",
        "meta_object_name": "IRNSS-1B",
        "meta_object_id": "2014-017A",
        "meta_epoch": "2025-12-21T18:32:21.878016",
        "meta_mean_motion": 1.00271154,
        "meta_eccentricity": 0.001853,
        "meta_inclination": 29.2394,
        "meta_ra_of_asc_node": 243.439,
        "meta_arg_of_pericenter": 175.0661,
        "meta_mean_anomaly": 5.3106,
        "meta_ephemeris_type": 0,
        "meta_classification_type": "U",
        "meta_norad_cat_id": 39635,
        "meta_element_set_no": 999,
        "meta_rev_at_epoch": 4301,
        "meta_bstar": 0,
        "meta_mean_motion_dot": 1.51e-06,
        "meta_mean_motion_ddot": 0,
        "tle_line1": "1 39635U 14017A   25355.77247544  .00000151  00000+0  00000+0 0  9994",
        "tle_line2": "2 39635  29.2394 243.4390 0018530 175.0661   5.3106  1.00271154 43019"
      },
      "geometry": {
        "type": "Point",
        "coordinates": [
          -42.46536775679815,
          28.291217825533142
        ]
      }
    },
    {
      "type": "Feature",
      "properties": {
        "norad_id": 39727,
        "name": "LUCH 5V (SDCM/PRN 141)",
        "group": "gnss",
        "lat": -4.472016256429374,
        "lon": -0.5693739170451626,
        "alt_km": 35781.54517019121,
        "timestamp": "2025-12-22T11:33:20.682309+00:00",
        "meta_object_name": "LUCH 5V (SDCM/PRN 141)",
        "meta_object_id": "2014-023A",
        "meta_epoch": "2025-12-22T03:20:34.560096",
        "meta_mean_motion": 1.00275573,
        "meta_eccentricity": 0.00037,
        "meta_inclination": 4.6922,
        "meta_ra_of_asc_node": 71.4609,
        "meta_arg_of_pericenter": 213.1661,
        "meta_mean_anomaly": 311.1741,
        "meta_ephemeris_type": 0,
        "meta_classification_type": "U",
        "meta_norad_cat_id": 39727,
        "meta_element_set_no": 999,
        "meta_rev_at_epoch": 4258,
        "meta_bstar": 0,
        "meta_mean_motion_dot": -2.5e-06,
        "meta_mean_motion_ddot": 0,
        "tle_line1": "1 39727U 14023A   25356.13928889 -.00000250  00000+0  00000+0 0  9993",
        "tle_line2": "2 39727   4.6922  71.4609 0003700 213.1661 311.1741  1.00275573 42587"
      },
      "geometry": {
        "type": "Point",
        "coordinates": [
          -0.5693739170451626,
          -4.472016256429374
        ]
      }
    },
    {
      "type": "Feature",
      "properties": {
        "norad_id": 39741,
        "name": "GPS BIIF-6  (PRN 06)",
        "group": "gnss",
        "lat": 9.570538924189051,
        "lon": -15.225497020824548,
        "alt_km": 20117.345714381037,
        "timestamp": "2025-12-22T11:33:20.682322+00:00",
        "meta_object_name": "GPS BIIF-6  (PRN 06)",
        "meta_object_id": "2014-026A",
        "meta_epoch": "2025-12-21T23:12:34.798752",
        "meta_mean_motion": 2.00560759,
        "meta_eccentricity": 0.003941,
        "meta_inclination": 56.58,
        "meta_ra_of_asc_node": 338.4177,
        "meta_arg_of_pericenter": 319.2097,
        "meta_mean_anomaly": 40.4995,
        "meta_ephemeris_type": 0,
        "meta_classification_type": "U",
        "meta_norad_cat_id": 39741,
        "meta_element_set_no": 999,
        "meta_rev_at_epoch": 8498,
        "meta_bstar": 0,
        "meta_mean_motion_dot": -6.8e-07,
        "meta_mean_motion_ddot": 0,
        "tle_line1": "1 39741U 14026A   25355.96706943 -.00000068  00000+0  00000+0 0  9994",
        "tle_line2": "2 39741  56.5800 338.4177 0039410 319.2097  40.4995  2.00560759 84985"
      },
      "geometry": {
        "type": "Point",
        "coordinates": [
          -15.225497020824548,
          9.570538924189051
        ]
      }
    },
    {
      "type": "Feature",
      "properties": {
        "norad_id": 40001,
        "name": "COSMOS 2500 (755)",
        "group": "gnss",
        "lat": -65.33504994716621,
        "lon": -131.2592128479808,
        "alt_km": 19123.60552178468,
        "timestamp": "2025-12-22T11:33:20.682334+00:00",
        "meta_object_name": "COSMOS 2500 (755)",
        "meta_object_id": "2014-032A",
        "meta_epoch": "2025-12-21T04:35:55.026240",
        "meta_mean_motion": 2.13106227,
        "meta_eccentricity": 0.00077299,
        "meta_inclination": 65.3386,
        "meta_ra_of_asc_node": 319.7453,
        "meta_arg_of_pericenter": 219.3736,
        "meta_mean_anomaly": 140.5635,
        "meta_ephemeris_type": 0,
        "meta_classification_type": "U",
        "meta_norad_cat_id": 40001,
        "meta_element_set_no": 999,
        "meta_rev_at_epoch": 8966,
        "meta_bstar": 0,
        "meta_mean_motion_dot": -4.7e-07,
        "meta_mean_motion_ddot": 0,
        "tle_line1": "1 40001U 14032A   25355.19160910 -.00000047  00000+0  00000+0 0  9992",
        "tle_line2": "2 40001  65.3386 319.7453 0007729 219.3736 140.5635  2.13106227 89663"
      },
      "geometry": {
        "type": "Point",
        "coordinates": [
          -131.2592128479808,
          -65.33504994716621
        ]
      }
    },
    {
      "type": "Feature",
      "properties": {
        "norad_id": 40105,
        "name": "GPS BIIF-7  (PRN 09)",
        "group": "gnss",
        "lat": -39.716688223152296,
        "lon": 60.33612117612943,
        "alt_km": 20271.225414639932,
        "timestamp": "2025-12-22T11:33:20.682348+00:00",
        "meta_object_name": "GPS BIIF-7  (PRN 09)",
        "meta_object_id": "2014-045A",
        "meta_epoch": "2025-12-21T13:19:50.036736",
        "meta_mean_motion": 2.00573131,
        "meta_eccentricity": 0.0032463,
        "meta_inclination": 55.2342,
        "meta_ra_of_asc_node": 95.5472,
        "meta_arg_of_pericenter": 120.1198,
        "meta_mean_anomaly": 240.2018,
        "meta_ephemeris_type": 0,
        "meta_classification_type": "U",
        "meta_norad_cat_id": 40105,
        "meta_element_set_no": 999,
        "meta_rev_at_epoch": 8251,
        "meta_bstar": 0,
        "meta_mean_motion_dot": -7e-08,
        "meta_mean_motion_ddot": 0,
        "tle_line1": "1 40105U 14045A   25355.55544024 -.00000007  00000+0  00000+0 0  9999",
        "tle_line2": "2 40105  55.2342  95.5472 0032463 120.1198 240.2018  2.00573131 82510"
      },
      "geometry": {
        "type": "Point",
        "coordinates": [
          60.33612117612943,
          -39.716688223152296
        ]
      }
    }
  ]
}